<gpx xmlns="http://www.topografix.com/GPX/1/1" xmlns:xsi="http://www.w3.org/2001/XMLSchema-instance" xsi:schemaLocation="http://www.topografix.com/GPX/1/1 http://www.topografix.com/GPX/1/1/gpx.xsd" version="1.1" creator="OpenLayers"><rte><rtept lat="-1.3042425717944752" lon="116.80583114949421"/><rtept lat="-1.3410340129797618" lon="116.80415836554529"/><rtept lat="-1.3861863879066902" lon="116.80081279764747"/><rtept lat="-1.479832981266597" lon="116.78910331000505"/><rtept lat="-1.5299991885925976" lon="116.78408495815832"/><rtept lat="-1.6102626641314686" lon="116.77739382236264"/><rtept lat="-1.6846215963237938" lon="116.7623387668224"/><rtept lat="-1.9139765345857" lon="116.74728371128214"/><rtept lat="-1.9958952339276266" lon="116.73390143969083"/><rtept lat="-2.096198269688742" lon="116.72386473599734"/><rtept lat="-2.159720221094858" lon="116.71382803230384"/><rtept lat="-2.2249110405866332" lon="116.70713689650817"/><rtept lat="-2.2867560786989856" lon="116.71048246440601"/><rtept lat="-2.3485984512037135" lon="116.69542740886577"/><rtept lat="-2.407095474381805" lon="116.69375462491685"/><rtept lat="-2.4973430782340245" lon="116.68204513727446"/><rtept lat="-2.692857987811223" lon="116.65360781014286"/><rtept lat="-2.734630686854416" lon="116.65360781014286"/><rtept lat="-2.898209257750338" lon="116.61515332609005"/><rtept lat="-2.998443428912566" lon="116.59675270265198"/><rtept lat="-3.090316691919625" lon="116.56998815946932"/><rtept lat="-3.283547759819669" lon="116.53537217386028"/><rtept lat="-3.325297827099149" lon="116.52868103806463"/><rtept lat="-3.3804052058429477" lon="116.5253354701668"/><rtept lat="-3.442188541662844" lon="116.51697155042221"/><rtept lat="-3.4887540538342705" lon="116.5035892788309"/><rtept lat="-3.558878143051544" lon="116.48853422329064"/><rtept lat="-3.620649707749905" lon="116.47682473564824"/><rtept lat="-3.6774090538000337" lon="116.46846081590365"/><rtept lat="-3.858149212984898" lon="116.43324180623561"/><rtept lat="-4.0750900700369925" lon="116.39309499146157"/><rtept lat="-4.131818922097736" lon="116.38807663961481"/><rtept lat="-4.250268966105708" lon="116.36131209643216"/><rtept lat="-4.335341600319168" lon="116.35127539273869"/><rtept lat="-4.371599217176652" lon="116.34000461865092"/><rtept lat="-4.44831946071983" lon="116.23629201381816"/><rtept lat="-4.493347195092667" lon="116.16268952006587"/><rtept lat="-4.5783919731335345" lon="116.03221237205047"/><rtept lat="-4.661759395675375" lon="115.91344471167741"/><rtept lat="-4.705106557869115" lon="115.85322448951644"/><rtept lat="-4.758453203657098" lon="115.76122137232608"/><rtept lat="-4.810128824704108" lon="115.69765558226727"/><rtept lat="-4.8451326649910555" lon="115.64078092800415"/><rtept lat="-4.875134514461337" lon="115.60397968112802"/><rtept lat="-4.913468260041583" lon="115.5487778108138"/><rtept lat="-4.943467045667745" lon="115.50528542814202"/><rtept lat="-4.9834633118993565" lon="115.45677469362344"/><rtept lat="-5.011792528708867" lon="115.39488168751357"/><rtept lat="-5.0484520437713485" lon="115.36142600853522"/><rtept lat="-5.081340088783207" lon="115.32171790731591"/><rtept lat="-5.129658356904514" lon="115.24978819751253"/><rtept lat="-5.241276174112841" lon="115.08418258656971"/><rtept lat="-5.29124786217028" lon="115.03065350020442"/><rtept lat="-5.3528740481199435" lon="114.95035987065647"/><rtept lat="-5.40783270654542" lon="114.8583567534661"/><rtept lat="-5.4378080565600015" lon="114.82155550658997"/><rtept lat="-5.489428766636735" lon="114.74126187704202"/><rtept lat="-5.546039888949409" lon="114.66096824749408"/><rtept lat="-5.5826677246945025" lon="114.60074802533313"/><rtept lat="-5.617628524103907" lon="114.55223729081456"/><rtept lat="-5.664239657280348" lon="114.48699871680685"/><rtept lat="-5.717504917154628" lon="114.40503230330998"/><rtept lat="-5.77575811719359" lon="114.33812094535335"/><rtept lat="-5.8290129453523605" lon="114.2611728837031"/><rtept lat="-5.873942778258751" lon="114.19258874179756"/><rtept lat="-5.895574369776895" lon="114.15578749492141"/><rtept lat="-5.93217975578996" lon="114.10393119250503"/><rtept lat="-5.978764912656629" lon="114.03534705059948"/><rtept lat="-6.017028325600506" lon="113.98683631608094"/><rtept lat="-6.068596487327966" lon="113.91825217417541"/><rtept lat="-6.115169942118001" lon="113.83963132857636"/><rtept lat="-6.150097373382138" lon="113.79781172985348"/><rtept lat="-6.228259958902697" lon="113.69075355712289"/><rtept lat="-6.283133128050963" lon="113.5970776559836"/><rtept lat="-6.318049408290577" lon="113.55693084120965"/><rtept lat="-6.387874888707486" lon="113.45656380427471"/><rtept lat="-6.442731088930586" lon="113.36456068708434"/><rtept lat="-6.554087503649839" lon="113.22070126747751"/><rtept lat="-6.653788578670316" lon="113.07182349602401"/><rtept lat="-6.718583445274803" lon="112.96978367514018"/><rtept lat="-6.760114081759326" lon="112.9095634529792"/><rtept lat="-6.785988943248071" lon="112.84036827812055"/><rtept lat="-6.781005722022115" lon="112.80691259914225"/><rtept lat="-6.719541767735635" lon="112.66639874743313"/><rtept lat="-6.689637571006713" lon="112.60116017342543"/><rtept lat="-6.623177257699638" lon="112.53592159941773"/><rtept lat="-6.566610599976585" lon="112.37061701144111"/><rtept lat="-6.51675381605061" lon="112.25017656711918"/><rtept lat="-6.465229932910972" lon="112.1196994191037"/><rtept lat="-6.418687717452258" lon="112.01933238216877"/><rtept lat="-6.370478796206669" lon="111.89721915389791"/><rtept lat="-6.3588414802013205" lon="111.71042494626899"/><rtept lat="-6.345541367962582" lon="111.54314655137742"/><rtept lat="-6.327253153166936" lon="111.41936053915767"/><rtept lat="-6.29732558812448" lon="111.13833283573986"/><rtept lat="-6.275710162221429" lon="111.0446569346006"/><rtept lat="-6.2624079157157695" lon="110.83555894098612"/><rtept lat="-6.24910533029464" lon="110.72850076825556"/><rtept lat="-6.230813723256546" lon="110.52274834253893"/><rtept lat="-6.210858515756954" lon="110.34376046000497"/><rtept lat="-6.192565577696897" lon="110.22666558358087"/><rtept lat="-6.189239520818219" lon="110.1346624663905"/><rtept lat="-6.174272005908676" lon="110.02258594181315"/><rtept lat="-6.15431466154098" lon="109.87872652220642"/><rtept lat="-6.1310301458658785" lon="109.68970193597895"/><rtept lat="-6.1010914183387825" lon="109.41871093625458"/><rtept lat="-6.091111470488059" lon="109.24139583766953"/><rtept lat="-6.054516743544596" lon="108.8867656404994"/><rtept lat="-6.004610850555807" lon="108.55889998651186"/><rtept lat="-5.991301838593387" lon="108.43845954218993"/><rtept lat="-5.991301838593387" lon="108.37489375213114"/><rtept lat="-5.977992502168007" lon="108.26449001150273"/><rtept lat="-5.951372858769531" lon="108.08048377712203"/><rtept lat="-5.928079612950171" lon="107.84629402427382"/><rtept lat="-5.871506215349257" lon="107.4075882512365"/><rtept lat="-5.814927072658307" lon="107.12321497992086"/><rtept lat="-5.814927072658307" lon="106.97935556031413"/><rtept lat="-5.904785383797659" lon="106.92248090605099"/><rtept lat="-5.938324817680339" lon="106.89440026290426"/><rtept lat="-5.99653906158666" lon="106.89312784074332"/><rtept lat="-6.052216439128841" lon="106.88040361913401"/></rte></gpx>