<gpx xmlns="http://www.topografix.com/GPX/1/1" xmlns:xsi="http://www.w3.org/2001/XMLSchema-instance" xsi:schemaLocation="http://www.topografix.com/GPX/1/1 http://www.topografix.com/GPX/1/1/gpx.xsd" version="1.1" creator="OpenLayers"><rte><rtept lat="-6.998486574840015" lon="112.66668886145494"/><rtept lat="-6.769700972437732" lon="112.70965358090014"/><rtept lat="-6.608710295880414" lon="112.53388881953343"/><rtept lat="-6.380540756564187" lon="111.93008425157439"/><rtept lat="-6.332017346743996" lon="111.62151944828616"/><rtept lat="-6.09904210381994" lon="111.05711927011973"/><rtept lat="-5.800143146834628" lon="110.51944542713018"/><rtept lat="-5.1403720287791685" lon="109.13826968770982"/><rtept lat="-4.620582801691683" lon="108.2573959963148"/><rtept lat="-3.652451532443365" lon="106.84201156984994"/><rtept lat="-3.138437007014531" lon="106.3282028316804"/><rtept lat="-2.9011117139542506" lon="106.09054736264918"/><rtept lat="-2.7112154086535156" lon="105.82912634671483"/><rtept lat="-2.386741399263556" lon="105.6944549142638"/><rtept lat="-2.204685186523676" lon="105.54393978387733"/><rtept lat="-2.0780241400439365" lon="105.13992548652426"/><rtept lat="-0.7320629242452839" lon="104.76999795945511"/><rtept lat="1.2220074063831277" lon="104.01817706480833"/></rte></gpx>