<gpx xmlns="http://www.topografix.com/GPX/1/1" xmlns:xsi="http://www.w3.org/2001/XMLSchema-instance" xsi:schemaLocation="http://www.topografix.com/GPX/1/1 http://www.topografix.com/GPX/1/1/gpx.xsd" version="1.1" creator="OpenLayers"><rte><rtept lat="-6.091319817055378" lon="106.88461748366608"/><rtept lat="-5.958160198348395" lon="106.89304470725257"/><rtept lat="-5.93301452509634" lon="106.90896279624928"/><rtept lat="-5.847324388552934" lon="106.95765342141567"/><rtept lat="-5.829625870882367" lon="106.9726351522361"/><rtept lat="-5.806337497465563" lon="107.1542886384338"/><rtept lat="-5.8547762285953695" lon="107.33781484098404"/><rtept lat="-5.877131151940247" lon="107.41740528596758"/><rtept lat="-5.902279367393007" lon="107.64868575550787"/><rtept lat="-5.917181475450889" lon="107.80599392912237"/><rtept lat="-5.940465214733678" lon="107.97922019173357"/><rtept lat="-5.957228897625328" lon="108.14682830528713"/><rtept lat="-5.986633622441715" lon="108.37745198979229"/><rtept lat="-6.013604348922655" lon="108.66463508831622"/><rtept lat="-6.0443684577656" lon="108.8502463808042"/><rtept lat="-6.040950309658726" lon="108.96023825783409"/><rtept lat="-6.088802413872756" lon="109.22490621193731"/><rtept lat="-6.099055882736934" lon="109.36239605822468"/><rtept lat="-6.116144561655005" lon="109.56519358149859"/><rtept lat="-6.136650255343596" lon="109.7886145817156"/><rtept lat="-6.1537377308103345" lon="109.88485747411676"/><rtept lat="-6.177659273089972" lon="110.0085983357754"/><rtept lat="-6.177659273089972" lon="110.12890195127687"/><rtept lat="-6.177659273089972" lon="110.18733513594903"/><rtept lat="-6.25625099308445" lon="110.21827035136369"/><rtept lat="-6.326245197806827" lon="110.24861760662412"/><rtept lat="-6.442386787727514" lon="110.2795528220388"/><rtept lat="-6.561916540469241" lon="110.32423702208219"/><rtept lat="-6.684831505909727" lon="110.35517223749684"/><rtept lat="-6.78041070195772" lon="110.39298194522587"/><rtept lat="-6.8759709446873245" lon="110.41016817601182"/><rtept lat="-6.940804467665444" lon="110.42047991448337"/></rte></gpx>