<gpx xmlns="http://www.topografix.com/GPX/1/1" xmlns:xsi="http://www.w3.org/2001/XMLSchema-instance" xsi:schemaLocation="http://www.topografix.com/GPX/1/1 http://www.topografix.com/GPX/1/1/gpx.xsd" version="1.1" creator="OpenLayers"><rte><rtept lat="-6.077636497139181" lon="106.88237817408117"/><rtept lat="-6.0420119482565156" lon="106.88466485900467"/><rtept lat="-6.021545720657869" lon="106.88618931562036"/><rtept lat="-6.001836772589712" lon="106.88771377223603"/><rtept lat="-5.967568446752722" lon="106.89124226807395"/><rtept lat="-5.946565293444422" lon="106.89457656083202"/><rtept lat="-5.9384585985611125" lon="106.8993927614826"/><rtept lat="-5.9303517843664935" lon="106.90569087002565"/><rtept lat="-5.901608484129781" lon="106.92384424170858"/><rtept lat="-5.87249516068897" lon="106.94199761339148"/><rtept lat="-5.8614390692086005" lon="106.95051858377326"/><rtept lat="-5.848540019022778" lon="106.95718716928944"/><rtept lat="-5.832692207349112" lon="106.96681957059059"/><rtept lat="-5.829006605528392" lon="106.98830723503157"/><rtept lat="-5.824583851396781" lon="107.02683684023611"/><rtept lat="-5.820898196349177" lon="107.06907121517189"/><rtept lat="-5.814342796202922" lon="107.10054887754801"/><rtept lat="-5.812868510231652" lon="107.1149974794997"/><rtept lat="-5.812868510231652" lon="107.13055751237077"/><rtept lat="-5.809919926704296" lon="107.14537659129562"/><rtept lat="-5.808814203900496" lon="107.1629948295729"/><rtept lat="-5.812868510231652" lon="107.17855486244396"/><rtept lat="-5.816922787357015" lon="107.19189203347631"/><rtept lat="-5.820608468473836" lon="107.20300634266992"/><rtept lat="-5.8261369448280504" lon="107.22338257619157"/><rtept lat="-5.8283483201320365" lon="107.23523783933143"/><rtept lat="-5.8412776264211885" lon="107.27642067584621"/><rtept lat="-5.848280095816037" lon="107.29568547844848"/><rtept lat="-5.853439754021338" lon="107.32680554419063"/><rtept lat="-5.867075764154677" lon="107.36792848820703"/><rtept lat="-5.868533720081103" lon="107.38494601998994"/><rtept lat="-5.8736931910639925" lon="107.39568985221047"/><rtept lat="-5.883274938907704" lon="107.4404678003945"/><rtept lat="-5.886223135807427" lon="107.46084403391615"/><rtept lat="-5.89175096283391" lon="107.51493367199176"/><rtept lat="-5.894330596615177" lon="107.53123465880907"/><rtept lat="-5.896541701741555" lon="107.56124329363186"/><rtept lat="-5.900595371582469" lon="107.60458909948694"/><rtept lat="-5.906860075755887" lon="107.64645299744959"/><rtept lat="-5.911282177214758" lon="107.6864645105466"/><rtept lat="-5.912387697059003" lon="107.71462076050378"/><rtept lat="-5.915335739176356" lon="107.7327741321867"/><rtept lat="-5.922166951139914" lon="107.79531930909955"/><rtept lat="-5.925114941093625" lon="107.80606314132002"/><rtept lat="-5.929168401575083" lon="107.84570417744396"/><rtept lat="-5.934695799686722" lon="107.89090236816467"/><rtept lat="-5.940223142368069" lon="107.95610631543394"/><rtept lat="-5.942434063908692" lon="107.97463016408996"/><rtept lat="-5.944644976569094" lon="108.00612070680523"/><rtept lat="-5.951618636641243" lon="108.04972637447177"/><rtept lat="-5.952724075620665" lon="108.0663978382622"/><rtept lat="-5.956040379214144" lon="108.09455408821935"/><rtept lat="-5.957145809295724" lon="108.11159602898289"/><rtept lat="-5.96009361196532" lon="108.13011987763893"/><rtept lat="-5.961935980593964" lon="108.14493895656376"/><rtept lat="-5.964146814781586" lon="108.16309232824666"/><rtept lat="-5.964146814781586" lon="108.17605902230589"/><rtept lat="-5.966357640056984" lon="108.20236288739746"/><rtept lat="-5.971147730897613" lon="108.23051913735463"/><rtept lat="-5.97188466423313" lon="108.24348583141386"/><rtept lat="-5.974463923098455" lon="108.26423254190863"/><rtept lat="-5.974832387658822" lon="108.27905162083344"/><rtept lat="-5.97778009521258" lon="108.29905737738194"/><rtept lat="-5.981633935243039" lon="108.33550410674769"/><rtept lat="-5.981633935243039" lon="108.35291652448437"/><rtept lat="-5.986423892385147" lon="108.37959086654907"/><rtept lat="-5.98900308268604" lon="108.3995966230976"/><rtept lat="-5.993056071404766" lon="108.42145476451171"/><rtept lat="-5.994529878023016" lon="108.43775575132904"/><rtept lat="-6.001530405079464" lon="108.51168597974846"/><rtept lat="-6.002635743239452" lon="108.5339145981357"/><rtept lat="-6.0077939583323" lon="108.57540801912519"/><rtept lat="-6.012215246658172" lon="108.60615760789422"/><rtept lat="-6.01479431492298" lon="108.62282907168466"/><rtept lat="-6.0166364990520265" lon="108.64728055191063"/><rtept lat="-6.019952414751359" lon="108.66802726240537"/><rtept lat="-6.056291819057677" lon="108.9108294067627"/><rtept lat="-6.056291819057677" lon="109.01874058546869"/><rtept lat="-6.0725504977269225" lon="109.1691622285134"/><rtept lat="-6.105066381340237" lon="109.3293939787132"/><rtept lat="-6.114820762044346" lon="109.56483655043536"/><rtept lat="-6.140831573415156" lon="109.70544808632498"/><rtept lat="-6.150585300442202" lon="109.87221990796151"/><rtept lat="-6.179845406840954" lon="110.1100406874788"/><rtept lat="-6.192849379699425" lon="110.24411215193169"/><rtept lat="-6.2058530323128025" lon="110.50244497368242"/><rtept lat="-6.228608651805587" lon="110.70518718822092"/><rtept lat="-6.248112683614309" lon="110.81309836692691"/><rtept lat="-6.290368922620232" lon="111.03219076005725"/><rtept lat="-6.322871385616168" lon="111.30687376039975"/><rtept lat="-6.326121519727948" lon="111.3918946890772"/><rtept lat="-6.342371883493641" lon="111.52923618924848"/><rtept lat="-6.3553718057346344" lon="111.69927804660335"/><rtept lat="-6.365121531864901" lon="111.80718922530934"/><rtept lat="-6.3781208787745385" lon="111.89548018970514"/><rtept lat="-6.441733564490221" lon="112.12487701625986"/><rtept lat="-6.493721137855474" lon="112.28183873074131"/><rtept lat="-6.548952051109907" lon="112.41918023091256"/><rtept lat="-6.630162865934068" lon="112.57287190967561"/><rtept lat="-6.76331956803584" lon="112.68732315981838"/><rtept lat="-6.842279113023054" lon="112.6829968649963"/><rtept lat="-6.866990797417458" lon="112.68023135481587"/><rtept lat="-6.904513492011944" lon="112.68023135481587"/><rtept lat="-6.942033211169132" lon="112.66916931409418"/><rtept lat="-6.983209946864051" lon="112.6710129875478"/><rtept lat="-7.018466037565588" lon="112.66794113030147"/><rtept lat="-7.041814642057503" lon="112.6639537622704"/><rtept lat="-7.057643536167987" lon="112.66275755186108"/><rtept lat="-7.078220288965355" lon="112.66355502546729"/><rtept lat="-7.093403116670672" lon="112.6639537622704"/><rtept lat="-7.104482161524331" lon="112.6655487094828"/><rtept lat="-7.116747935435043" lon="112.66953607751388"/><rtept lat="-7.129013381510106" lon="112.67392218234805"/><rtept lat="-7.146026198406702" lon="112.68070070800078"/><rtept lat="-7.15433455332456" lon="112.68189691841008"/><rtept lat="-7.167390234030151" lon="112.689074180866"/><rtept lat="-7.172928894684418" lon="112.69585270651878"/><rtept lat="-7.176885039615797" lon="112.70223249536848"/><rtept lat="-7.179258710065611" lon="112.71100470503679"/><rtept lat="-7.181236759311929" lon="112.72097312511443"/><rtept lat="-7.183214799954072" lon="112.73094154519205"/><rtept lat="-7.1897507400412906" lon="112.73392040052713"/></rte></gpx>