<gpx xmlns="http://www.topografix.com/GPX/1/1" xmlns:xsi="http://www.w3.org/2001/XMLSchema-instance" xsi:schemaLocation="http://www.topografix.com/GPX/1/1 http://www.topografix.com/GPX/1/1/gpx.xsd" version="1.1" creator="OpenLayers"><rte><rtept lat="-6.864795069108695" lon="112.37021774733351"/><rtept lat="-6.8376134503270265" lon="112.37592131210214"/><rtept lat="-6.773050919384161" lon="112.39417271936175"/><rtept lat="-6.7135777834041335" lon="112.41128341366763"/><rtept lat="-6.65303941961875" lon="112.4260451336663"/><rtept lat="-6.608765266435114" lon="112.41837189255018"/><rtept lat="-6.576395847863154" lon="112.38726814159378"/><rtept lat="-6.554324580278589" lon="112.3220983776851"/><rtept lat="-6.510208631856557" lon="112.24499086972597"/><rtept lat="-6.471848961917786" lon="112.15579501910831"/><rtept lat="-6.411573607248059" lon="111.99956032154878"/><rtept lat="-6.372710664922877" lon="111.86709083618655"/><rtept lat="-6.3700645476414195" lon="111.79653292450392"/><rtept lat="-6.359479942140197" lon="111.73529398228881"/><rtept lat="-6.34227949354873" lon="111.6381104435561"/><rtept lat="-6.325078471008609" lon="111.49832590154335"/><rtept lat="-6.322432109003984" lon="111.40779876957319"/><rtept lat="-6.297290995302504" lon="111.27067679026544"/><rtept lat="-6.295967745025578" lon="111.1442050617777"/><rtept lat="-6.277441887432559" lon="111.04569024169253"/><rtept lat="-6.261562056381706" lon="110.85797957098964"/><rtept lat="-6.247005120322939" lon="110.74348937467444"/><rtept lat="-6.219835949975078" lon="110.61304541730188"/><rtept lat="-6.154040741811031" lon="110.52739983486299"/><rtept lat="-6.0616999755570475" lon="110.47457054146892"/><rtept lat="-5.98755998418909" lon="110.4679141347064"/><rtept lat="-5.906788903372714" lon="110.45060747712387"/><rtept lat="-5.88702944714683" lon="110.4395739982842"/><rtept lat="-5.885919428201419" lon="110.43644946977058"/><rtept lat="-5.884920409255017" lon="110.43332494125696"/><rtept lat="-5.884365780705181" lon="110.43193914367865"/><rtept lat="-5.8835415305951955" lon="110.43137926826218"/><rtept lat="-5.8825613396846705" lon="110.43057304766245"/><rtept lat="-5.880868278588167" lon="110.42920695164624"/><rtept lat="-5.879598479383944" lon="110.428893421413"/><rtept lat="-5.878907885617579" lon="110.42891581642965"/><rtept lat="-5.877660359221963" lon="110.42759451044675"/><rtept lat="-5.876341783314672" lon="110.42574823279391"/><rtept lat="-5.875472966579295" lon="110.42478524707755"/><rtept lat="-5.874960586843429" lon="110.4240462115278"/><rtept lat="-5.872287293618584" lon="110.41992552846247"/><rtept lat="-5.87131954859062" lon="110.4187407642649"/><rtept lat="-5.867190484255687" lon="110.41193081921631"/><rtept lat="-5.863541235295514" lon="110.40675850165586"/><rtept lat="-5.857871746615402" lon="110.39580988795764"/><rtept lat="-5.84619054314004" lon="110.3768245208863"/><rtept lat="-5.842460507066505" lon="110.36782566031242"/><rtept lat="-5.834403544367632" lon="110.35312752137504"/><rtept lat="-5.828882966040155" lon="110.34247886969595"/><rtept lat="-5.823809954294276" lon="110.33213018003595"/><rtept lat="-5.82052739286685" lon="110.32703082571075"/><rtept lat="-5.809933541180371" lon="110.30873314254377"/><rtept lat="-5.804412722549003" lon="110.29928433894116"/><rtept lat="-5.797548926686389" lon="110.28488616202294"/><rtept lat="-5.788297591489382" lon="110.26958809904733"/><rtept lat="-5.779195323592091" lon="110.2526402449665"/><rtept lat="-5.773674204527836" lon="110.24664100458388"/><rtept lat="-5.7704546145394175" lon="110.24447357340715"/><rtept lat="-5.769949459308407" lon="110.24416893671427"/><rtept lat="-5.769949459308407" lon="110.24362736037143"/><rtept lat="-5.769848428208192" lon="110.24311963255003"/><rtept lat="-5.7703030680173555" lon="110.2421380254286"/><rtept lat="-5.770387260534605" lon="110.24151182778218"/><rtept lat="-5.769444303627353" lon="110.24058099344289"/><rtept lat="-5.767619719595089" lon="110.24042262461208"/><rtept lat="-5.766777789751728" lon="110.2402195334835"/><rtept lat="-5.7661884381179505" lon="110.2399656695728"/><rtept lat="-5.76538018345336" lon="110.24025338200494"/><rtept lat="-5.764521411610829" lon="110.24069341278349"/><rtept lat="-5.762568121797116" lon="110.24064264000133"/><rtept lat="-5.761153666357529" lon="110.24062571574062"/><rtept lat="-5.758914104706847" lon="110.24045647313346"/><rtept lat="-5.757129184587839" lon="110.24067648852275"/><rtept lat="-5.755883104955245" lon="110.24076110982634"/><rtept lat="-5.753360735987897" lon="110.23272535928575"/><rtept lat="-5.746839806446076" lon="110.21604694936019"/><rtept lat="-5.733194100430751" lon="110.20391926314552"/><rtept lat="-5.720846475986448" lon="110.18945324958723"/><rtept lat="-5.711512295586189" lon="110.17618213875087"/><rtept lat="-5.700765893541885" lon="110.13367656231043"/><rtept lat="-5.671004002865345" lon="110.06338229546516"/><rtept lat="-5.500080008020731" lon="109.93516998561866"/><rtept lat="-5.401868093398846" lon="109.80169141505723"/><rtept lat="-5.251630936955607" lon="109.62758893171628"/><rtept lat="-5.08401604269315" lon="109.38964887115027"/><rtept lat="-4.899011093413648" lon="108.95439266279782"/><rtept lat="-4.823838094750741" lon="108.76287993112274"/><rtept lat="-4.494136854745406" lon="108.24637589721121"/><rtept lat="-4.239528040617955" lon="107.96200850775428"/><rtept lat="-4.106403362323633" lon="107.80531627274739"/><rtept lat="-3.7611762688673878" lon="107.31332073825465"/><rtept lat="-3.69501801320132" lon="107.28248420016067"/><rtept lat="-3.1180781781127678" lon="107.41935744193891"/><rtept lat="-2.885189747056941" lon="107.51510323992316"/><rtept lat="-2.8234994082020393" lon="107.51945903616968"/><rtept lat="-2.737613870947527" lon="107.47907850353113"/><rtept lat="-2.7013763902017587" lon="107.49727354374552"/><rtept lat="-2.7531345071587054" lon="107.62531847548883"/></rte></gpx>