<gpx xmlns="http://www.topografix.com/GPX/1/1" xmlns:xsi="http://www.w3.org/2001/XMLSchema-instance" xsi:schemaLocation="http://www.topografix.com/GPX/1/1 http://www.topografix.com/GPX/1/1/gpx.xsd" version="1.1" creator="OpenLayers"><rte><rtept lat="-6.860898608129915" lon="112.36827796822732"/><rtept lat="-6.859592646201591" lon="112.37015708171454"/><rtept lat="-6.858697127381049" lon="112.3710590561884"/><rtept lat="-6.846861687897288" lon="112.37426579122368"/><rtept lat="-6.832735921485195" lon="112.37805450845967"/><rtept lat="-6.809465012065843" lon="112.38379269498162"/><rtept lat="-6.780291426289168" lon="112.39177637657328"/><rtept lat="-6.686002863578807" lon="112.41889017092477"/><rtept lat="-6.621091816423487" lon="112.43557558283341"/><rtept lat="-6.591395614198504" lon="112.44461351428392"/><rtept lat="-6.489364713089884" lon="112.21571630478"/><rtept lat="-6.39061662279083" lon="111.9485075074343"/><rtept lat="-6.3398147130569384" lon="111.58931866200831"/><rtept lat="-6.322255758429407" lon="111.35744325935296"/><rtept lat="-6.293721186258082" lon="111.18298462306943"/><rtept lat="-6.260794732692403" lon="110.8760257566971"/><rtept lat="-6.232256793266856" lon="110.58746970005934"/><rtept lat="-6.208862698994139" lon="110.38292223663561"/><rtept lat="-6.184712926364384" lon="110.17313020566175"/><rtept lat="-6.153975257285495" lon="109.85733799061683"/><rtept lat="-6.114452785571714" lon="109.59012919327115"/><rtept lat="-6.09688630397676" lon="109.38254549946544"/><rtept lat="-6.035206451896272" lon="108.73050487335178"/><rtept lat="-5.978104920556731" lon="108.36833757777582"/><rtept lat="-5.964926795674359" lon="108.18725392998782"/><rtept lat="-5.906295050753471" lon="107.6394830380632"/><rtept lat="-5.877738330523911" lon="107.4716494132841"/><rtept lat="-5.860164235458981" lon="107.37227424071753"/><rtept lat="-5.827211317245428" lon="107.21989897611546"/><rtept lat="-5.814029607744459" lon="107.00789860797343"/><rtept lat="-5.809635635920742" lon="106.95489851593793"/><rtept lat="-5.782316507580731" lon="106.95648247101857"/><rtept lat="-5.7715571227068665" lon="106.96391730738732"/><rtept lat="-5.761470013905125" lon="106.97135214375604"/><rtept lat="-5.647557103117691" lon="106.98039250981346"/><rtept lat="-5.435062039524283" lon="106.99692354651856"/><rtept lat="-5.312499220093642" lon="107.00794777582985"/><rtept lat="-5.144164388902595" lon="107.02448411979675"/><rtept lat="-4.906224365874323" lon="107.0373457206599"/><rtept lat="-4.757926264703684" lon="107.0391830922118"/><rtept lat="-4.55281966805498" lon="107.06858103704187"/><rtept lat="-4.395287270960026" lon="107.07960526635314"/><rtept lat="-4.195576420602947" lon="107.09797898187195"/><rtept lat="-4.028806119444084" lon="107.10532846807945"/><rtept lat="-3.9206619589234464" lon="107.11451532583884"/><rtept lat="-3.6474582180177038" lon="107.13436545121951"/><rtept lat="-3.5245953837143134" lon="107.15273916673829"/><rtept lat="-3.3833748035525275" lon="107.16560076760143"/><rtept lat="-3.194437324067053" lon="107.17295025380895"/><rtept lat="-3.0641784940966375" lon="107.19132396932773"/><rtept lat="-2.89903896727499" lon="107.20602294174277"/><rtept lat="-2.5702747429030097" lon="107.22872552324478"/><rtept lat="-2.2442416400308502" lon="107.2546700755136"/><rtept lat="-1.9699925275747887" lon="107.26790441002495"/><rtept lat="-1.7790082304549202" lon="107.07498039707764"/><rtept lat="-1.641266775303535" lon="106.92064118671979"/><rtept lat="-1.4612704299514547" lon="106.7607898617063"/><rtept lat="-1.1293543832707513" lon="106.37734210805742"/><rtept lat="-0.9603443681920538" lon="106.1936049528695"/><rtept lat="-0.6553713681856266" lon="105.87022755973874"/><rtept lat="-0.41054314101566547" lon="105.63070963549964"/><rtept lat="-0.14449242859360822" lon="105.33272907449755"/><rtept lat="0.18541414431095404" lon="104.98685878047726"/><rtept lat="0.36048908505969735" lon="104.76868224486539"/><rtept lat="0.4586855190292738" lon="104.66569309681665"/><rtept lat="0.6409083020701871" lon="104.47338464631741"/><rtept lat="0.7031765235217904" lon="104.4194949758268"/><rtept lat="0.7858003689247255" lon="104.35961756417056"/><rtept lat="0.8289078243256682" lon="104.3272837618762"/><rtept lat="0.8672251692918564" lon="104.29734505604809"/><rtept lat="0.9390691321559359" lon="104.2326774514593"/><rtept lat="0.9725958163709407" lon="104.21710932442869"/><rtept lat="0.9756280760660303" lon="104.21642892692513"/><rtept lat="0.9943553148236219" lon="104.21274433547683"/><rtept lat="1.013288359605781" lon="104.20941734572826"/><rtept lat="1.0309408843221348" lon="104.20542570499259"/><rtept lat="1.0555007555394837" lon="104.20128053961328"/><rtept lat="1.0613336966191156" lon="104.20051291639489"/><rtept lat="1.0670131286792781" lon="104.19928471924544"/><rtept lat="1.0729995457150778" lon="104.19836357138337"/><rtept lat="1.080097550347034" lon="104.19685160504619"/><rtept lat="1.0862374387514677" lon="104.19577693254043"/><rtept lat="1.0932982949895802" lon="104.19439521074732"/><rtept lat="1.1046998826322039" lon="104.19297931064303"/><rtept lat="1.1128351652274233" lon="104.19159758884992"/><rtept lat="1.1172865367829559" lon="104.19067644098783"/><rtept lat="1.1198959583538937" lon="104.19021586705679"/><rtept lat="1.1237333387952475" lon="104.18760594811425"/><rtept lat="1.1272637243492056" lon="104.18545660310275"/><rtept lat="1.1304871161171235" lon="104.18407488130961"/><rtept lat="1.1335570097121206" lon="104.18253963487281"/><rtept lat="1.13708738332231" lon="104.18069733914867"/><rtept lat="1.140617752614844" lon="104.17946914199925"/><rtept lat="1.1447620936482963" lon="104.17701274770036"/><rtept lat="1.1489064286915749" lon="104.17470987804518"/><rtept lat="1.1505948597646665" lon="104.1737887301831"/><rtept lat="1.1556601469821857" lon="104.17117881124055"/><rtept lat="1.1602649457056913" lon="104.16856889229801"/><rtept lat="1.163948779289285" lon="104.16611249799917"/><rtept lat="1.1707024616830637" lon="104.16242790655086"/><rtept lat="1.1728513572193862" lon="104.1615067586888"/><rtept lat="1.1757677128074988" lon="104.15966446296464"/><rtept lat="1.1794515260367717" lon="104.15843626581521"/><rtept lat="1.1839027938481337" lon="104.15597987151634"/><rtept lat="1.1860516792008866" lon="104.15383052650483"/><rtept lat="1.187740087950516" lon="104.1512206075623"/><rtept lat="1.1901959533808508" lon="104.14815011468872"/><rtept lat="1.1923448338385185" lon="104.14415847395306"/><rtept lat="1.1949541864245816" lon="104.14032035786109"/><rtept lat="1.197103063163894" lon="104.13663576641278"/><rtept lat="1.1994054292299552" lon="104.13295117496449"/><rtept lat="1.2015543024774047" lon="104.12942010815986"/><rtept lat="1.203242701700404" lon="104.12588904135524"/><rtept lat="1.2055450625928188" lon="104.12020862953919"/><rtept lat="1.210456759318248" lon="104.11253239735522"/><rtept lat="1.2124521335736773" lon="104.10547026374597"/><rtept lat="1.2146009965116207" lon="104.10101804907929"/><rtept lat="1.2167498577408509" lon="104.09702640834361"/><rtept lat="1.2192056970494605" lon="104.09226714438957"/><rtept lat="1.2205871056763726" lon="104.08597263399871"/><rtept lat="1.2227359621296614" lon="104.08059927146995"/><rtept lat="1.2233499208004872" lon="104.07768230324004"/><rtept lat="1.2246407970011433" lon="104.07064774694659"/><rtept lat="1.2246407970011433" lon="104.06819135264772"/><rtept lat="1.2246407970011433" lon="104.05667700437178"/><rtept lat="1.2243338178310523" lon="104.05437413471658"/><rtept lat="1.2231059007991973" lon="104.04531618073952"/><rtept lat="1.2229524111307057" lon="104.0408639660728"/><rtept lat="1.2227989214534318" lon="104.0344159310383"/><rtept lat="1.2195813583744126" lon="104.02533320690067"/><rtept lat="1.2126336334747094" lon="104.01779248776185"/><rtept lat="1.2049467681289485" lon="104.01025176862305"/><rtept lat="1.1954859810174554" lon="104.00078890539004"/><rtept lat="1.1911990511093649" lon="103.99694461720163"/><rtept lat="1.1887468547082705" lon="103.99366559607438"/><rtept lat="1.186381647043234" lon="103.99144773750415"/><rtept lat="1.1841642630208185" lon="103.99041273683802"/><rtept lat="1.1817990514418284" lon="103.98967345064794"/><rtept lat="1.1785468822327516" lon="103.98982130788596"/><rtept lat="1.1742599261110769" lon="103.98996916512398"/><rtept lat="1.1713418239936573" lon="103.9897946118698"/><rtept lat="1.1696655778261373" lon="103.9897946118698"/><rtept lat="1.1653818330746617" lon="103.98970146764651"/><rtept lat="1.1632399582542092" lon="103.98942203497668"/><rtept lat="1.1607255813906647" lon="103.98904945808358"/><rtept lat="1.156487435436901" lon="103.98429910269653"/><rtept lat="1.1605849434652669" lon="103.97032746920486"/><rtept lat="1.1624474451533047" lon="103.96082675843054"/><rtept lat="1.1643099456128283" lon="103.95169862454934"/><rtept lat="1.1669174441885133" lon="103.94331564445434"/><rtept lat="1.1698974396006179" lon="103.93120689542823"/><rtept lat="1.1672899437878357" lon="103.91295062766581"/><rtept lat="1.162215582765171" lon="103.908665993395"/><rtept lat="1.1447080172384005" lon="103.9095974356278"/><rtept lat="1.1245928100898794" lon="103.923755357566"/><rtept lat="1.1048499719594531" lon="103.92636339581777"/><rtept lat="1.0957235211694467" lon="103.92450051135222"/><rtept lat="1.0815681548174894" lon="103.93008916474888"/></rte></gpx>