<gpx xmlns="http://www.topografix.com/GPX/1/1" xmlns:xsi="http://www.w3.org/2001/XMLSchema-instance" xsi:schemaLocation="http://www.topografix.com/GPX/1/1 http://www.topografix.com/GPX/1/1/gpx.xsd" version="1.1" creator="OpenLayers"><rte><rtept lat="-6.929300392740657" lon="110.42126552912396"/><rtept lat="-6.841874520838147" lon="110.41909118299955"/><rtept lat="-6.65401692436771" lon="110.48975743204223"/><rtept lat="-6.412736394873477" lon="110.56830871760818"/><rtept lat="-6.370600198261286" lon="110.69333361976058"/><rtept lat="-6.363036924279385" lon="110.97926013511784"/><rtept lat="-6.398691381836585" lon="111.07928005683978"/><rtept lat="-6.60824562028003" lon="111.18908453612147"/><rtept lat="-6.663320001064832" lon="111.29888901540315"/><rtept lat="-6.668719118124159" lon="111.34672463013973"/><rtept lat="-6.634163743064761" lon="111.42608826367994"/><rtept lat="-6.595286049190207" lon="111.49131864741165"/><rtept lat="-6.624444606530886" lon="111.60112312669334"/><rtept lat="-6.764650217541757" lon="111.81404471588037"/><rtept lat="-6.7441372956674" lon="111.90428008004254"/><rtept lat="-6.736579684332469" lon="111.9782078482718"/><rtept lat="-6.767464418295901" lon="112.03429504655782"/><rtept lat="-6.866777194681077" lon="112.0788691421078"/><rtept lat="-6.866777194681077" lon="112.14953539115048"/><rtept lat="-6.837633189389791" lon="112.30173961985777"/><rtept lat="-6.847348055707485" lon="112.42676452201019"/><rtept lat="-6.85382452338321" lon="112.48329752124434"/><rtept lat="-6.817123378851662" lon="112.54961507803823"/><rtept lat="-6.785817239847887" lon="112.59636351971258"/><rtept lat="-6.808487406416489" lon="112.6626810765065"/><rtept lat="-6.860300903068264" lon="112.6833373646882"/><rtept lat="-6.98480764459849" lon="112.67335939927968"/><rtept lat="-7.082995799972977" lon="112.65705180334676"/><rtept lat="-7.145566372192562" lon="112.67988243765284"/><rtept lat="-7.179005756564251" lon="112.70488741808336"/><rtept lat="-7.183320337031191" lon="112.74946151363332"/><rtept lat="-7.2221497156671575" lon="112.85274295454182"/><rtept lat="-7.315973580664391" lon="112.98755241425404"/><rtept lat="-7.386059012986692" lon="113.12671056621497"/><rtept lat="-7.41085581749347" lon="113.51265700329418"/><rtept lat="-7.451821390769396" lon="113.98883880453558"/><rtept lat="-7.604869200867867" lon="114.4324054139111"/><rtept lat="-7.6932241389233695" lon="114.62592221898177"/><rtept lat="-7.794486417542942" lon="114.62374787285741"/><rtept lat="-8.024937376232998" lon="114.49654862458056"/><rtept lat="-8.078760144524779" lon="114.443277144533"/><rtept lat="-8.11966065179827" lon="114.4204465102269"/><rtept lat="-8.216513622853938" lon="114.41609781797813"/><rtept lat="-8.30440874420691" lon="114.42903336010022"/><rtept lat="-8.511977715139352" lon="114.71713422158187"/><rtept lat="-8.699460502718367" lon="115.0437357227928"/><rtept lat="-8.84558632939158" lon="115.06982787628546"/><rtept lat="-8.874589736011089" lon="115.17854518250498"/><rtept lat="-8.831620910810742" lon="115.24921143154764"/><rtept lat="-8.757487931809493" lon="115.26551902748058"/><rtept lat="-8.687638995986433" lon="115.30030856547079"/><rtept lat="-8.662920096317833" lon="115.30248291159519"/><rtept lat="-8.610252679863976" lon="115.38619523738421"/><rtept lat="-8.536075937639879" lon="115.5623172734598"/></rte></gpx>