<gpx xmlns="http://www.topografix.com/GPX/1/1" xmlns:xsi="http://www.w3.org/2001/XMLSchema-instance" xsi:schemaLocation="http://www.topografix.com/GPX/1/1 http://www.topografix.com/GPX/1/1/gpx.xsd" version="1.1" creator="OpenLayers"><rte><rtept lat="-6.939997234602615" lon="110.42052672744428"/><rtept lat="-6.920825160387238" lon="110.4203709759335"/><rtept lat="-6.90752794177827" lon="110.42052672744428"/><rtept lat="-6.897013597230597" lon="110.41943646686869"/><rtept lat="-6.880159234650137" lon="110.41834620629304"/><rtept lat="-6.870417449422334" lon="110.41881346082545"/><rtept lat="-6.861603281284346" lon="110.41803470327145"/><rtept lat="-6.84289196273339" lon="110.42457626672501"/><rtept lat="-6.812772402742709" lon="110.43456077500663"/><rtept lat="-6.788949508544775" lon="110.44224717125722"/><rtept lat="-6.776421931615673" lon="110.44660821355959"/><rtept lat="-6.757707290850917" lon="110.45314977701317"/><rtept lat="-6.729913168883243" lon="110.46201177762353"/><rtept lat="-6.720323018321608" lon="110.46481530481792"/><rtept lat="-6.708103036329675" lon="110.46964360165269"/><rtept lat="-6.685518465782394" lon="110.47649666812787"/><rtept lat="-6.670048979478466" lon="110.48132496496264"/><rtept lat="-6.656744830555695" lon="110.48599751028662"/><rtept lat="-6.6389538355640525" lon="110.4923833222294"/><rtept lat="-6.621183653850153" lon="110.49854706525029"/><rtept lat="-6.608187617774178" lon="110.50321961057429"/><rtept lat="-6.5956554024047875" lon="110.50586738625786"/><rtept lat="-6.584979561509215" lon="110.50991692553866"/><rtept lat="-6.575077126985974" lon="110.51334345877625"/><rtept lat="-6.563472460508194" lon="110.51817175561102"/><rtept lat="-6.555735865916773" lon="110.51957351920822"/><rtept lat="-6.539488626658866" lon="110.5248690705754"/><rtept lat="-6.527573648790167" lon="110.52985311892097"/><rtept lat="-6.51488465933555" lon="110.53281239762617"/><rtept lat="-6.4924460270253945" lon="110.5413787307201"/><rtept lat="-6.452818769092858" lon="110.55335576854455"/><rtept lat="-6.415706949723798" lon="110.56502672670096"/><rtept lat="-6.389417774578632" lon="110.57280736547192"/><rtept lat="-6.350754770538771" lon="110.58603445138255"/><rtept lat="-6.303581974822535" lon="110.59926153729317"/><rtept lat="-6.2703264402934735" lon="110.61871313422054"/><rtept lat="-6.240162609346612" lon="110.6233815174831"/><rtept lat="-6.238615699342162" lon="110.6451673060418"/><rtept lat="-6.245576758392218" lon="110.7064221530931"/><rtept lat="-6.250217413012734" lon="110.74221309143948"/><rtept lat="-6.254858026467886" lon="110.79434337120489"/><rtept lat="-6.257178317749052" lon="110.82346519060478"/><rtept lat="-6.267353212872365" lon="110.90456554785702"/><rtept lat="-6.278954288379964" lon="110.97225710516432"/><rtept lat="-6.286688195165425" lon="111.04617317348837"/><rtept lat="-6.293648612947223" lon="111.12086730568952"/><rtept lat="-6.299062206754343" lon="111.18077822422588"/><rtept lat="-6.305249101966055" lon="111.24068914276222"/><rtept lat="-6.311435923360932" lon="111.28114846437119"/><rtept lat="-6.318954684362481" lon="111.38592680403592"/><rtept lat="-6.325141341976959" lon="111.43494482829293"/><rtept lat="-6.332101243281656" lon="111.47929446928741"/><rtept lat="-6.336741125371148" lon="111.51741959926508"/><rtept lat="-6.343700870259795" lon="111.55943504862825"/><rtept lat="-6.351247207381334" lon="111.63960267217378"/><rtept lat="-6.3520204952388895" lon="111.6699471633805"/><rtept lat="-6.360526584962514" lon="111.73841678456488"/><rtept lat="-6.35975330989244" lon="111.76331482863193"/><rtept lat="-6.365939477871947" lon="111.81388898064314"/><rtept lat="-6.373672083050266" lon="111.853570238375"/><rtept lat="-6.379084837324328" lon="111.89947600712362"/><rtept lat="-6.380631328047528" lon="111.92670824282196"/><rtept lat="-6.393776310619998" lon="111.95783079790577"/><rtept lat="-6.403054918427287" lon="111.9912875446209"/><rtept lat="-6.415426133162015" lon="112.02318816358179"/><rtept lat="-6.430889729159148" lon="112.06053522968237"/><rtept lat="-6.448672282961283" lon="112.10410680679972"/><rtept lat="-6.464009406543866" lon="112.13251638309595"/><rtept lat="-6.47715223390621" lon="112.16363893817974"/><rtept lat="-6.490294719004979" lon="112.19942987652617"/><rtept lat="-6.501890744608872" lon="112.22821823997869"/><rtept lat="-6.5119404171301625" lon="112.25700660343122"/><rtept lat="-6.519670797556472" lon="112.2787923919899"/><rtept lat="-6.535207321211914" lon="112.31629269484431"/><rtept lat="-6.549121273346955" lon="112.3481933138052"/><rtept lat="-6.571537379969669" lon="112.39954552969354"/><rtept lat="-6.585450317542254" lon="112.43533646803994"/><rtept lat="-6.597044134290414" lon="112.45634419272149"/><rtept lat="-6.6194580769315365" lon="112.51547704738077"/><rtept lat="-6.62332244705668" lon="112.5434873469562"/><rtept lat="-6.639552470898195" lon="112.55827056062101"/><rtept lat="-6.6694059618378105" lon="112.58832653814062"/><rtept lat="-6.7049534042005945" lon="112.62256134873283"/><rtept lat="-6.762132974522558" lon="112.67624775625242"/><rtept lat="-6.781448870847981" lon="112.69103096991721"/><rtept lat="-6.809318579344691" lon="112.6873436996276"/><rtept lat="-6.855284620763896" lon="112.68267531636505"/><rtept lat="-6.874982997478057" lon="112.68073015667231"/><rtept lat="-6.914763501502975" lon="112.67606177340973"/><rtept lat="-6.959143767485372" lon="112.67335633899947"/><rtept lat="-7.000847824301118" lon="112.66790989185981"/><rtept lat="-7.03208808529493" lon="112.66370122600175"/><rtept lat="-7.049780971402882" lon="112.66146454258761"/><rtept lat="-7.0675408082097135" lon="112.65990841483341"/><rtept lat="-7.10537470434636" lon="112.66691098972727"/><rtept lat="-7.138573313762379" lon="112.6770258201295"/><rtept lat="-7.151697681550644" lon="112.68169420339206"/><rtept lat="-7.164049683146061" lon="112.68636258665464"/><rtept lat="-7.170997536997405" lon="112.69414322542558"/><rtept lat="-7.17871725028489" lon="112.70737031133619"/><rtept lat="-7.183738213906636" lon="112.72316563332282"/><rtept lat="-7.188369927849905" lon="112.7342167608"/></rte></gpx>