<gpx xmlns="http://www.topografix.com/GPX/1/1" xmlns:xsi="http://www.w3.org/2001/XMLSchema-instance" xsi:schemaLocation="http://www.topografix.com/GPX/1/1 http://www.topografix.com/GPX/1/1/gpx.xsd" version="1.1" creator="OpenLayers"><rte><rtept lat="-7.196307677888058" lon="112.73307075284582"/><rtept lat="-7.193539048544167" lon="112.73379465834"/><rtept lat="-7.191898017623046" lon="112.7342016064718"/><rtept lat="-7.189540653301805" lon="112.73480984077621"/><rtept lat="-7.187313518863633" lon="112.73536994143063"/><rtept lat="-7.181999361587586" lon="112.72980775952094"/><rtept lat="-7.17926679783109" lon="112.7200374143148"/><rtept lat="-7.176822537938335" lon="112.71090180198537"/><rtept lat="-7.175407205603264" lon="112.70566836149506"/><rtept lat="-7.168448928826152" lon="112.6961492125845"/><rtept lat="-7.156479888809969" lon="112.68643024342445"/><rtept lat="-7.1547128145878105" lon="112.68571261446088"/><rtept lat="-7.146016434763652" lon="112.68219301166644"/><rtept lat="-7.141682284516548" lon="112.68032688772429"/><rtept lat="-7.137691136959631" lon="112.67918205413288"/><rtept lat="-7.135561671963686" lon="112.67857664657438"/><rtept lat="-7.1328300293003934" lon="112.67781615998764"/><rtept lat="-7.127263438924928" lon="112.6761902489405"/><rtept lat="-7.125004292477513" lon="112.67554462191141"/><rtept lat="-7.122328771876425" lon="112.67477868934832"/><rtept lat="-7.1022529656763425" lon="112.66904097541206"/><rtept lat="-7.088058580439309" lon="112.66943970432422"/><rtept lat="-7.085470338882516" lon="112.66951514716386"/><rtept lat="-7.081387254475231" lon="112.66956903490643"/><rtept lat="-7.075889818098943" lon="112.66973069813417"/><rtept lat="-7.071098224816581" lon="112.66984925116786"/><rtept lat="-7.065872861290757" lon="112.67001946092311"/><rtept lat="-7.061656468598784" lon="112.6700949037627"/><rtept lat="-7.056013411061073" lon="112.6702608583211"/><rtept lat="-7.049926230345932" lon="112.67046888860301"/><rtept lat="-7.046332976899393" lon="112.67055510899124"/><rtept lat="-7.041362591728429" lon="112.67079221505863"/><rtept lat="-7.035110097498901" lon="112.67107243132007"/><rtept lat="-7.028928313140284" lon="112.67157430099411"/><rtept lat="-7.022028987327985" lon="112.67232872939032"/><rtept lat="-7.016873462814985" lon="112.67302920605265"/><rtept lat="-7.010389102993699" lon="112.67395607522519"/><rtept lat="-7.0086561896645065" lon="112.67424706903513"/><rtept lat="-7.003981570344337" lon="112.6755834850513"/><rtept lat="-6.998156605550562" lon="112.67732593262701"/><rtept lat="-6.9935561664269414" lon="112.67865726017507"/><rtept lat="-6.988282839815767" lon="112.68020228703585"/><rtept lat="-6.982923370272289" lon="112.68165725608577"/><rtept lat="-6.978070890234164" lon="112.6828718884627"/><rtept lat="-6.967652343477127" lon="112.68550796309289"/><rtept lat="-6.962482204672995" lon="112.68679289409138"/><rtept lat="-6.956082368665449" lon="112.6883509296911"/><rtept lat="-6.952789838695466" lon="112.6892209692558"/><rtept lat="-6.949879894010294" lon="112.69152736463853"/><rtept lat="-6.946198794301111" lon="112.69449436308525"/><rtept lat="-6.9418809905643" lon="112.69793540290225"/><rtept lat="-6.933653740548479" lon="112.70450970749789"/><rtept lat="-6.928979850868686" lon="112.70831352054839"/><rtept lat="-6.923390090467478" lon="112.71274825743147"/><rtept lat="-6.917355457704673" lon="112.7175976467237"/><rtept lat="-6.911607091924907" lon="112.72204965527243"/><rtept lat="-6.904994922848516" lon="112.72724443365793"/><rtept lat="-6.899238622745003" lon="112.7316632285501"/><rtept lat="-6.892935273903703" lon="112.73618979892746"/><rtept lat="-6.887439051219786" lon="112.74021470673286"/><rtept lat="-6.883212621658288" lon="112.74325397541479"/><rtept lat="-6.878128692588774" lon="112.74699186402395"/><rtept lat="-6.874637406784942" lon="112.74951408412382"/><rtept lat="-6.871662780096457" lon="112.75368499540008"/><rtept lat="-6.869565550093299" lon="112.75654928741204"/><rtept lat="-6.867907019817338" lon="112.76146384953599"/><rtept lat="-6.866512859395868" lon="112.76575962021916"/><rtept lat="-6.864190900492034" lon="112.77306679811402"/><rtept lat="-6.861173407019322" lon="112.78222771435391"/><rtept lat="-6.858926324989653" lon="112.78927623108436"/><rtept lat="-6.854817347580379" lon="112.80214462401419"/><rtept lat="-6.850613715330056" lon="112.81557232064266"/><rtept lat="-6.8467186801231605" lon="112.82796650143774"/><rtept lat="-6.84312323478963" lon="112.83934759267224"/><rtept lat="-6.840736957014727" lon="112.84670865830965"/><rtept lat="-6.8376006508530764" lon="112.85641912788296"/><rtept lat="-6.8325540955051025" lon="112.87180729693507"/><rtept lat="-6.829188157338933" lon="112.88251912701298"/><rtept lat="-6.82747598108088" lon="112.88842522360055"/><rtept lat="-6.824739660361587" lon="112.89667123570771"/><rtept lat="-6.822792041288125" lon="112.90231867113087"/><rtept lat="-6.819784987493037" lon="112.91144856109472"/><rtept lat="-6.818062076279318" lon="112.91672955986827"/><rtept lat="-6.815151305374343" lon="112.92627846785471"/><rtept lat="-6.812165606563312" lon="112.93521305557572"/><rtept lat="-6.809928995635659" lon="112.94217535191801"/><rtept lat="-6.80755780592655" lon="112.9493887497828"/><rtept lat="-6.805973971616879" lon="112.95407698338789"/><rtept lat="-6.8027955856511255" lon="112.96388455253881"/><rtept lat="-6.801094016842853" lon="112.96915477376385"/><rtept lat="-6.798461389075953" lon="112.97733493308863"/><rtept lat="-6.7971236661888526" lon="112.9815812872045"/><rtept lat="-6.795186636850573" lon="112.98792926328125"/><rtept lat="-6.794576631520599" lon="112.9932641497974"/><rtept lat="-6.7937785310336665" lon="113.00095246537026"/><rtept lat="-6.792986591820906" lon="113.00825964326509"/><rtept lat="-6.791835041085079" lon="113.01955243711264"/><rtept lat="-6.7909360793278495" lon="113.02775611108868"/><rtept lat="-6.790221424533058" lon="113.03526808761538"/><rtept lat="-6.789675624693217" lon="113.04026887012749"/><rtept lat="-6.7884770032647594" lon="113.052296614273"/><rtept lat="-6.787379152301952" lon="113.06251382370101"/><rtept lat="-6.786147410661414" lon="113.07503356771836"/><rtept lat="-6.784552803740013" lon="113.09037001925869"/><rtept lat="-6.782962916555945" lon="113.10650522051174"/><rtept lat="-6.781824274000755" lon="113.11792309725423"/><rtept lat="-6.779619660553735" lon="113.13892906279978"/><rtept lat="-6.778311423630456" lon="113.15073729430271"/><rtept lat="-6.77717529729955" lon="113.1643036144234"/><rtept lat="-6.775842826977026" lon="113.1763802148241"/><rtept lat="-6.77446189930312" lon="113.18918873040064"/><rtept lat="-6.773783547418645" lon="113.1978253294751"/><rtept lat="-6.772741790881582" lon="113.20597398509902"/><rtept lat="-6.770152660201404" lon="113.2326536957049"/><rtept lat="-6.768971183768471" lon="113.24472137499026"/><rtept lat="-6.766889527779625" lon="113.26213136023934"/><rtept lat="-6.764357771915357" lon="113.29028927857185"/><rtept lat="-6.762613665711584" lon="113.30637951761898"/><rtept lat="-6.761319647363024" lon="113.32167657586804"/><rtept lat="-6.759350482358599" lon="113.33912655342621"/><rtept lat="-6.7563123263319085" lon="113.36853089872716"/><rtept lat="-6.753579396199115" lon="113.39851871773791"/><rtept lat="-6.749359679558069" lon="113.43664805181795"/><rtept lat="-6.747259239563846" lon="113.4583941213641"/><rtept lat="-6.743039467844525" lon="113.50201906525953"/><rtept lat="-6.7416328691046346" lon="113.51255703871996"/><rtept lat="-6.7387633950187364" lon="113.54513410721339"/><rtept lat="-6.7375818419297815" lon="113.5576550326691"/><rtept lat="-6.73488113834658" lon="113.58162042392594"/><rtept lat="-6.731899094010174" lon="113.61361486814441"/><rtept lat="-6.728748234806545" lon="113.6465318712655"/><rtept lat="-6.726497608572757" lon="113.66869114520718"/><rtept lat="-6.723965641596521" lon="113.69633916159805"/><rtept lat="-6.7222776562833815" lon="113.71446900841174"/><rtept lat="-6.7186999298537415" lon="113.74634552013943"/><rtept lat="-6.716561790979512" lon="113.77127405950827"/><rtept lat="-6.7141423067104995" lon="113.79454625073986"/><rtept lat="-6.712510554714285" lon="113.81261944178223"/><rtept lat="-6.712398019892248" lon="113.81409249183584"/><rtept lat="-6.708065409467281" lon="113.83312883099022"/><rtept lat="-6.698622873293999" lon="113.87533315720248"/><rtept lat="-6.696822261714175" lon="113.88332162095476"/><rtept lat="-6.684096488522812" lon="113.93505322294813"/><rtept lat="-6.646196269941683" lon="114.09509079392423"/><rtept lat="-6.6173326249943045" lon="114.21268095183032"/><rtept lat="-6.586521885761329" lon="114.34633759175641"/><rtept lat="-6.552258851292024" lon="114.48728283876164"/><rtept lat="-6.529838370892193" lon="114.59142948789174"/><rtept lat="-6.503396385534899" lon="114.7209687611509"/><rtept lat="-6.403195533736678" lon="115.17316201555994"/><rtept lat="-6.211930820025671" lon="115.98763184583522"/><rtept lat="-6.081415649843706" lon="116.51736721829586"/><rtept lat="-5.950868796987251" lon="117.05587199618847"/><rtept lat="-5.824742953152551" lon="117.55857590242067"/><rtept lat="-5.68897976494236" lon="118.13530008581813"/><rtept lat="-5.549433528462828" lon="118.70214722044193"/><rtept lat="-5.402208821981901" lon="119.28178239224485"/><rtept lat="-5.376131124458979" lon="119.29382509639056"/><rtept lat="-5.32319856279652" lon="119.31673560671662"/><rtept lat="-5.259146999550211" lon="119.3425833619563"/><rtept lat="-5.1968999521776595" lon="119.3613995899126"/><rtept lat="-5.154983054518354" lon="119.37317800727189"/><rtept lat="-5.120239973755446" lon="119.38400170930827"/><rtept lat="-5.119272887877258" lon="119.3847500456234"/><rtept lat="-5.118816059509129" lon="119.38516042360267"/><rtept lat="-5.118327172648463" lon="119.38564322122532"/><rtept lat="-5.117966518167506" lon="119.38610187896688"/><rtept lat="-5.117537619128839" lon="119.38664466002547"/><rtept lat="-5.117238409130479" lon="119.38719451287355"/><rtept lat="-5.117091475597903" lon="119.38746541598402"/><rtept lat="-5.117024687617388" lon="119.38805550196732"/><rtept lat="-5.116965914188768" lon="119.38871800759398"/><rtept lat="-5.117016673059254" lon="119.38905328372086"/><rtept lat="-5.117134219901757" lon="119.38986267973536"/><rtept lat="-5.117168949646555" lon="119.39015235830895"/><rtept lat="-5.117225051537986" lon="119.39047422339075"/><rtept lat="-5.117321152127403" lon="119.39109766429995"/><rtept lat="-5.117465414089736" lon="119.39196527812676"/><rtept lat="-5.117569603264499" lon="119.39274311874108"/><rtept lat="-5.117641734221692" lon="119.39318300101951"/><rtept lat="-5.117767295498197" lon="119.39406665740904"/><rtept lat="-5.1179641206226165" lon="119.39542218478557"/><rtept lat="-5.118170117866782" lon="119.39700639780722"/><rtept lat="-5.1184035231268865" lon="119.39849634381795"/><rtept lat="-5.118833087873014" lon="119.40132920302382"/><rtept lat="-5.119059174465619" lon="119.40278649117306"/><rtept lat="-5.119208391572968" lon="119.40383519385986"/><rtept lat="-5.119678651319845" lon="119.40475678106945"/><rtept lat="-5.120374996848369" lon="119.40602793584131"/><rtept lat="-5.120528735369362" lon="119.4062004497032"/><rtept lat="-5.120646300095771" lon="119.40638658308052"/><rtept lat="-5.1208588208924795" lon="119.40659541565016"/><rtept lat="-5.121012559297128" lon="119.40679970838137"/><rtept lat="-5.121238645119163" lon="119.4069949214356"/><rtept lat="-5.121428557147894" lon="119.40710387755891"/><rtept lat="-5.121609425694217" lon="119.40717651497442"/><rtept lat="-5.122111182699285" lon="119.40744655858539"/></rte></gpx>