<gpx xmlns="http://www.topografix.com/GPX/1/1" xmlns:xsi="http://www.w3.org/2001/XMLSchema-instance" xsi:schemaLocation="http://www.topografix.com/GPX/1/1 http://www.topografix.com/GPX/1/1/gpx.xsd" version="1.1" creator="OpenLayers"><rte><rtept lat="-7.1963655605253365" lon="112.73308259675967"/><rtept lat="-7.1944705483549" lon="112.73344791359689"/><rtept lat="-7.187500448345816" lon="112.73482317356297"/><rtept lat="-7.1824127744760204" lon="112.72949658755692"/><rtept lat="-7.177395487255893" lon="112.71027697006869"/><rtept lat="-7.1760487926199374" lon="112.70520041626128"/><rtept lat="-7.169338158145649" lon="112.69504624824933"/><rtept lat="-7.1571806880168936" lon="112.68504868701095"/><rtept lat="-7.141819713649284" lon="112.67841935062589"/><rtept lat="-7.1026223078442" lon="112.66728266427988"/><rtept lat="-7.088439422170197" lon="112.66710079793091"/><rtept lat="-7.074295330396708" lon="112.66725398316675"/><rtept lat="-7.061646930990506" lon="112.66798144856276"/><rtept lat="-7.0353963660633525" lon="112.66953168534141"/><rtept lat="-7.026581537116968" lon="112.67065584019151"/><rtept lat="-7.017410857093012" lon="112.67148640077338"/><rtept lat="-6.992430111798541" lon="112.67675530840471"/><rtept lat="-6.972687413014725" lon="112.68141912220428"/><rtept lat="-6.963040857070439" lon="112.68402918855685"/><rtept lat="-6.955102970831149" lon="112.68569518835638"/><rtept lat="-6.951960853790808" lon="112.68663925490944"/><rtept lat="-6.948212335802879" lon="112.6898046545285"/><rtept lat="-6.94330614210493" lon="112.69341432076081"/><rtept lat="-6.936084572923036" lon="112.69913425340583"/><rtept lat="-6.930075701948894" lon="112.70352138621136"/><rtept lat="-6.923294957399634" lon="112.70851938560992"/><rtept lat="-6.915632047503394" lon="112.71446145156152"/><rtept lat="-6.911387072681848" lon="112.71768238450728"/><rtept lat="-6.906756147579912" lon="112.72123651741292"/><rtept lat="-6.903172662513995" lon="112.72401318374547"/><rtept lat="-6.898541657008408" lon="112.7272341166912"/><rtept lat="-6.894958109761632" lon="112.73006631635037"/><rtept lat="-6.890878346058642" lon="112.73362044925601"/><rtept lat="-6.884427837224862" lon="112.73817418204143"/><rtept lat="-6.877896836835674" lon="112.74291996817118"/><rtept lat="-6.872934779060657" lon="112.74680730103672"/><rtept lat="-6.867035376310412" lon="112.75341576690816"/><rtept lat="-6.8636169973132155" lon="112.7594688995131"/><rtept lat="-6.860088322276198" lon="112.7656330987713"/><rtept lat="-6.856283940213331" lon="112.77207496466279"/><rtept lat="-6.85380280511184" lon="112.77623996416159"/><rtept lat="-6.8504946048885245" lon="112.78240416341981"/><rtept lat="-6.8477928910162404" lon="112.78684682955186"/><rtept lat="-6.843872009206649" lon="112.79384402870986"/><rtept lat="-6.839130149746865" lon="112.8023406276874"/><rtept lat="-6.836428371561837" lon="112.8068388271461"/><rtept lat="-6.833450884034107" lon="112.81172575989137"/><rtept lat="-6.826779039113632" lon="112.82444289169436"/><rtept lat="-6.819445416322125" lon="112.83649362357754"/><rtept lat="-6.814041622427894" lon="112.84576768912821"/><rtept lat="-6.806432095125331" lon="112.85937335415761"/><rtept lat="-6.802131004587011" lon="112.86731461986867"/><rtept lat="-6.798767304379126" lon="112.87231261926719"/><rtept lat="-6.792332445107263" lon="112.88162520484741"/><rtept lat="-6.786983490312295" lon="112.88928880392518"/><rtept lat="-6.7824616471175005" lon="112.89495320324356"/><rtept lat="-6.774189872923358" lon="112.90733713508665"/><rtept lat="-6.769133342589768" lon="112.91503925419406"/><rtept lat="-6.7632326618270895" lon="112.92314711988504"/><rtept lat="-6.753526712436511" lon="112.93719705152766"/><rtept lat="-6.74459265510211" lon="112.95019184996391"/><rtept lat="-6.739518919550193" lon="112.95741118242849"/><rtept lat="-6.732294269701143" lon="112.96735164789894"/><rtept lat="-6.725234965975389" lon="112.97762531332928"/><rtept lat="-6.716762105442896" lon="112.98951809939518"/><rtept lat="-6.710458564249478" lon="112.99899461796822"/><rtept lat="-6.704592695676695" lon="113.0071488316241"/><rtept lat="-6.700189375065165" lon="113.01341554052905"/><rtept lat="-6.69462981711095" lon="113.02179013833779"/><rtept lat="-6.687231567001206" lon="113.03214819352225"/><rtept lat="-6.6836637691719005" lon="113.0377547212065"/><rtept lat="-6.678541800719813" lon="113.04463070677576"/><rtept lat="-6.673419778652516" lon="113.05243230578704"/><rtept lat="-6.667728580189291" lon="113.06032205845946"/><rtept lat="-6.659541894203031" lon="113.07226687954456"/><rtept lat="-6.653150055111439" lon="113.08134670664245"/><rtept lat="-6.646320326907315" lon="113.09104360936833"/><rtept lat="-6.641635778990107" lon="113.09774328761529"/><rtept lat="-6.632222767525903" lon="113.11109856727869"/><rtept lat="-6.622240400782346" lon="113.12559984453695"/><rtept lat="-6.609061616195703" lon="113.144244343869"/><rtept lat="-6.58970874465993" lon="113.17205682396008"/><rtept lat="-6.580163385004539" lon="113.18585287192919"/><rtept lat="-6.578762215847405" lon="113.18757186832151"/><rtept lat="-6.56658939259178" lon="113.20555521519498"/><rtept lat="-6.542786976140377" lon="113.23957641561202"/><rtept lat="-6.522406663432577" lon="113.26846051422291"/><rtept lat="-6.506172770139898" lon="113.29204982805598"/><rtept lat="-6.489830837820023" lon="113.31596376547392"/><rtept lat="-6.459833412083469" lon="113.35784020792079"/><rtept lat="-6.419296432645538" lon="113.41735453181161"/><rtept lat="-6.398757897204163" lon="113.44678707017215"/><rtept lat="-6.384240633113393" lon="113.46669731671017"/><rtept lat="-6.30507655473464" lon="113.58128559054494"/><rtept lat="-6.24374764377329" lon="113.67302857216477"/><rtept lat="-6.186145255214967" lon="113.75350487183128"/><rtept lat="-6.037843702307796" lon="113.96435277695757"/><rtept lat="-5.907646250724028" lon="114.149984774855"/><rtept lat="-5.784357320452727" lon="114.3270326341213"/><rtept lat="-5.656236461684912" lon="114.51266463201874"/><rtept lat="-5.5035319478109415" lon="114.72345476571984"/><rtept lat="-5.394044655934238" lon="114.88065180440177"/><rtept lat="-5.2594283678872245" lon="115.0700393629503"/><rtept lat="-5.102339278047111" lon="115.29698252800989"/><rtept lat="-4.8591498023630635" lon="115.64410363390475"/><rtept lat="-4.723352823534071" lon="115.83563722711106"/><rtept lat="-4.380914459293862" lon="116.33490421764543"/><rtept lat="-4.378510250749329" lon="116.33861534286511"/><rtept lat="-4.3616381486693285" lon="116.34179603791262"/><rtept lat="-4.315848540202921" lon="116.35101604054432"/><rtept lat="-4.294661451197811" lon="116.3548328746013"/><rtept lat="-4.200644615547503" lon="116.37391704488624"/><rtept lat="-4.146589304649282" lon="116.3848586358496"/><rtept lat="-4.082377961268264" lon="116.39681804922816"/><rtept lat="-4.044051742271947" lon="116.40521508415351"/><rtept lat="-3.9439326694841412" lon="116.424571597213"/><rtept lat="-3.8685349270654115" lon="116.44034784464854"/><rtept lat="-3.8043019230380963" lon="116.45332508044233"/><rtept lat="-3.7372710754176097" lon="116.46655677183988"/><rtept lat="-3.6413652352012775" lon="116.48475720837465"/><rtept lat="-3.594892674587882" lon="116.49417206571522"/><rtept lat="-3.5057501783334573" lon="116.510966135566"/><rtept lat="-3.4066930034587273" lon="116.52954139464333"/><rtept lat="-3.3142304355520196" lon="116.54582655328674"/><rtept lat="-3.2191693529334913" lon="116.56288496145314"/><rtept lat="-3.1019679075649123" lon="116.58236980866417"/><rtept lat="-2.971421197462945" lon="116.60577972421373"/><rtept lat="-2.8451196687226457" lon="116.62766290614049"/><rtept lat="-2.7127042261671477" lon="116.65005499927481"/><rtept lat="-2.592475709370575" lon="116.67168372559776"/><rtept lat="-2.4839297801501203" lon="116.6900045290713"/><rtept lat="-2.3359676419077857" lon="116.71646791186643"/><rtept lat="-2.2129081760753593" lon="116.72562831360321"/><rtept lat="-2.0670123905608477" lon="116.73886000500079"/><rtept lat="-1.9512356210334048" lon="116.74795915697534"/><rtept lat="-1.7911338042796956" lon="116.76042748156154"/><rtept lat="-1.6542985968113868" lon="116.77187798373252"/><rtept lat="-1.4788266924804105" lon="116.78616684142717"/><rtept lat="-1.3406320491944825" lon="116.79851690548223"/><rtept lat="-1.2997283622786568" lon="116.80118524558762"/><rtept lat="-1.2817550705611325" lon="116.80404600701216"/><rtept lat="-1.2757559533217346" lon="116.80492844990596"/><rtept lat="-1.2734621695004478" lon="116.80545791564225"/></rte></gpx>