<gpx xmlns="http://www.topografix.com/GPX/1/1" xmlns:xsi="http://www.w3.org/2001/XMLSchema-instance" xsi:schemaLocation="http://www.topografix.com/GPX/1/1 http://www.topografix.com/GPX/1/1/gpx.xsd" version="1.1" creator="OpenLayers"><rte><rtept lat="-7.1962825036979865" lon="112.73313368414331"/><rtept lat="-7.191415553689339" lon="112.73286466923993"/><rtept lat="-7.189029159139693" lon="112.73265895196083"/><rtept lat="-7.188040057723455" lon="112.73256400552435"/><rtept lat="-7.184303432941476" lon="112.72846548434907"/><rtept lat="-7.183345721643732" lon="112.72218319513443"/><rtept lat="-7.181822799523559" lon="112.71270437589115"/><rtept lat="-7.1810848869709645" lon="112.70743484866576"/><rtept lat="-7.180378373830479" lon="112.70349457155129"/><rtept lat="-7.17726970297484" lon="112.69900788700323"/><rtept lat="-7.172088537687472" lon="112.69152294292635"/><rtept lat="-7.16894840881703" lon="112.68892774032886"/><rtept lat="-7.165400037143769" lon="112.68570328487775"/><rtept lat="-7.1601559328513815" lon="112.68136739761123"/><rtept lat="-7.1591667686943055" lon="112.68049705527669"/><rtept lat="-7.152713597516865" lon="112.67840823367382"/><rtept lat="-7.14673137926367" lon="112.67641435850744"/><rtept lat="-7.141738286741045" lon="112.67472114705669"/><rtept lat="-7.136839350523857" lon="112.67312288204238"/><rtept lat="-7.130637096431997" lon="112.6711747218269"/><rtept lat="-7.124623185045223" lon="112.66921249547273"/><rtept lat="-7.119472827454686" lon="112.6674401619915"/><rtept lat="-7.114699273662396" lon="112.66603178985018"/><rtept lat="-7.112301247098927" lon="112.66514109585397"/><rtept lat="-7.10864251664583" lon="112.66387514336738"/><rtept lat="-7.1054862493688375" lon="112.6629573278146"/><rtept lat="-7.1029109704591775" lon="112.66226105394699"/><rtept lat="-7.0998802883896985" lon="112.66215028310441"/><rtept lat="-7.093110079860921" lon="112.6622508631897"/><rtept lat="-7.086373315476891" lon="112.66234580962616"/><rtept lat="-7.081518044481314" lon="112.66244075606267"/><rtept lat="-7.072652762370524" lon="112.66245658046871"/><rtept lat="-7.063904471111627" lon="112.6625040536869"/><rtept lat="-7.0541593929917354" lon="112.66251987809297"/><rtept lat="-7.04504871823481" lon="112.66255152690515"/><rtept lat="-7.0387352925101965" lon="112.66315285433625"/><rtept lat="-7.027710149126733" lon="112.66429221157418"/><rtept lat="-7.019417561235841" lon="112.66521002712695"/><rtept lat="-7.013512598894025" lon="112.66577427796585"/><rtept lat="-7.006150123138383" lon="112.66666044470647"/><rtept lat="-6.9987878877035" lon="112.66764742875883"/><rtept lat="-6.993321995740118" lon="112.66837535143857"/><rtept lat="-6.987557609344947" lon="112.66910327411838"/><rtept lat="-6.981541838755277" lon="112.67002108967118"/><rtept lat="-6.972842849665014" lon="112.67109658295752"/><rtept lat="-6.96128188143966" lon="112.67267680708852"/><rtept lat="-6.9502412036067085" lon="112.67408471372357"/><rtept lat="-6.94125607182842" lon="112.67568297873785"/><rtept lat="-6.931999099937684" lon="112.67713882409743"/><rtept lat="-6.920999119127828" lon="112.67908254690114"/><rtept lat="-6.867381789772466" lon="112.68826107954008"/><rtept lat="-6.834318877422234" lon="112.69378425356977"/><rtept lat="-6.785852184670176" lon="112.70140703963641"/><rtept lat="-6.7789763929635285" lon="112.70305733352708"/><rtept lat="-6.768129263665145" lon="112.69677049965773"/><rtept lat="-6.752857377727111" lon="112.68874411265571"/><rtept lat="-6.738497759848343" lon="112.68025688693204"/><rtept lat="-6.720836518890167" lon="112.66991703784863"/><rtept lat="-6.706163763117942" lon="112.66315869143905"/><rtept lat="-6.682070324568031" lon="112.64864446369809"/><rtept lat="-6.655035722657004" lon="112.63381701480336"/><rtept lat="-6.638955942717445" lon="112.62407242230582"/><rtept lat="-6.605936108522897" lon="112.60560484781455"/><rtept lat="-6.594382548597196" lon="112.59900367225171"/><rtept lat="-6.56864040517145" lon="112.58467196990465"/><rtept lat="-6.532915658513289" lon="112.56445252436768"/><rtept lat="-6.496694974351996" lon="112.54440280161569"/><rtept lat="-6.465149352770965" lon="112.5269568376282"/><rtept lat="-6.433289400724462" lon="112.50833209229019"/><rtept lat="-6.392175659906755" lon="112.48581824196224"/><rtept lat="-6.358983415741065" lon="112.46735066747102"/><rtept lat="-6.313847829526097" lon="112.44185010127293"/><rtept lat="-6.2703394289236485" lon="112.41678135121877"/><rtept lat="-6.237412765687864" lon="112.39882455362888"/><rtept lat="-6.199697728779313" lon="112.37721356220291"/><rtept lat="-6.156233216427552" lon="112.3532956102797"/><rtept lat="-6.130761498055918" lon="112.33883589238012"/><rtept lat="-5.954228464158959" lon="112.23888651916165"/><rtept lat="-5.886127789135912" lon="112.20150787250617"/><rtept lat="-5.714919182026179" lon="112.10602578500992"/><rtept lat="-5.534175283679048" lon="112.00634205605222"/><rtept lat="-5.433704718432068" lon="111.94791334184401"/><rtept lat="-5.312850070795449" lon="111.87944750391071"/><rtept lat="-5.175754548302464" lon="111.80432012498929"/><rtept lat="-5.04450722238046" lon="111.73047773362235"/><rtept lat="-4.884308339917467" lon="111.63731521950352"/><rtept lat="-4.783265553381312" lon="111.58328272037775"/><rtept lat="-4.690691365149547" lon="111.5329510773565"/><rtept lat="-4.57560198311954" lon="111.46744592430679"/><rtept lat="-4.501079088534382" lon="111.42562625032589"/><rtept lat="-4.3317142390739605" lon="111.33125441966118"/><rtept lat="-4.174122874163771" lon="111.24317404437397"/><rtept lat="-4.141641057165614" lon="111.22318942140966"/><rtept lat="-4.023883368515158" lon="111.15953469641221"/><rtept lat="-3.865492822583093" lon="111.07034406429372"/><rtept lat="-3.798757702379703" lon="110.97305636098808"/><rtept lat="-3.711235716358388" lon="110.84463665416182"/><rtept lat="-3.670980064698327" lon="110.77950158672257"/><rtept lat="-3.5845535708570395" lon="110.6570032496635"/><rtept lat="-3.523606890742087" lon="110.56707244632408"/><rtept lat="-3.4271921991008867" lon="110.42199888702753"/><rtept lat="-3.3558907793021433" lon="110.31467405999693"/><rtept lat="-3.274238728097515" lon="110.19587657904239"/><rtept lat="-3.1881458750958984" lon="110.06967738587883"/><rtept lat="-3.136782316814731" lon="109.99380983573649"/><rtept lat="-3.057699689597584" lon="109.87797303966553"/><rtept lat="-2.981567912237537" lon="109.75843538749008"/><rtept lat="-2.9154102883470046" lon="109.6659139848775"/><rtept lat="-2.8255923328975996" lon="109.52713188095862"/><rtept lat="-2.733919107088397" lon="109.39538140363828"/><rtept lat="-2.6252329211920937" lon="109.2314334782088"/><rtept lat="-2.573843960117941" lon="109.15519584245602"/><rtept lat="-2.4917652241208685" lon="109.03565819028057"/><rtept lat="-2.427059902697465" lon="108.93943593156347"/><rtept lat="-2.317238683390954" lon="108.7780786054071"/><rtept lat="-2.240691559751923" lon="108.66446232299887"/><rtept lat="-2.159702568229804" lon="108.54492467082342"/><rtept lat="-2.1138438629051564" lon="108.47460840483787"/><rtept lat="-2.0676139581401003" lon="108.40984342300906"/><rtept lat="-2.022862127272589" lon="108.42390667620617"/><rtept lat="-1.9451907455799073" lon="108.44574172722272"/><rtept lat="-1.8885993360052282" lon="108.46276566530342"/><rtept lat="-1.8549395153736157" lon="108.47164771995422"/><rtept lat="-1.7835489994459408" lon="108.4964434558545"/><rtept lat="-1.7332410589337854" lon="108.51013662344116"/><rtept lat="-1.6222629894230636" lon="108.54196398593992"/><rtept lat="-1.5353258948669293" lon="108.57046057794456"/><rtept lat="-1.4318500167563997" lon="108.59884378980756"/><rtept lat="-1.3571148690227943" lon="108.62400961131817"/><rtept lat="-1.198757675924071" lon="108.67064039823494"/><rtept lat="-0.8797967708011214" lon="108.76279171523713"/><rtept lat="-0.8120784895694015" lon="108.78610710869549"/><rtept lat="-0.6668584564551026" lon="108.8294071251182"/><rtept lat="-0.5206825297571243" lon="108.87307722715134"/><rtept lat="-0.38509306951873157" lon="108.91165968410634"/><rtept lat="-0.29997490805369864" lon="108.9360853343961"/><rtept lat="-0.15268202483422044" lon="108.98123577887105"/><rtept lat="-0.0823659111835866" lon="109.00196057305625"/><rtept lat="-0.04498728827479681" lon="109.01417339820114"/><rtept lat="-0.012419759080387394" lon="109.02342553846238"/><rtept lat="0.029312834557373435" lon="109.03600844921775"/><rtept lat="0.07104913499945553" lon="109.04812480456401"/><rtept lat="0.08217119230846492" lon="109.06150604174665"/><rtept lat="0.07956446038900822" lon="109.07975318335933"/><rtept lat="0.06983265981131126" lon="109.13640621350916"/><rtept lat="0.06548810531481308" lon="109.15308931441218"/><rtept lat="0.06114355044176989" lon="109.17231114806133"/><rtept lat="0.05645143078476167" lon="109.18656129674932"/><rtept lat="0.05280200412151714" lon="109.1969882348137"/><rtept lat="0.047762319332690595" lon="109.2074151728781"/><rtept lat="0.03942077130277255" lon="109.21818967554462"/><rtept lat="0.03524511669995434" lon="109.22499003891794"/><rtept lat="0.033741765286862346" lon="109.22756660283771"/><rtept lat="0.032943686101617686" lon="109.22892416044454"/><rtept lat="0.03226902121838293" lon="109.23004311701743"/><rtept lat="0.031460307246476304" lon="109.23163586234581"/><rtept lat="0.030703366146781264" lon="109.23312506190236"/><rtept lat="0.02996288028319327" lon="109.23469653767756"/><rtept lat="0.02898379341145585" lon="109.23667939454575"/><rtept lat="0.02797179604776545" lon="109.2388021209855"/><rtept lat="0.027033847263822963" lon="109.24065333590384"/><rtept lat="0.025314274474681042" lon="109.24421589616905"/><rtept lat="0.02368813525983171" lon="109.2474714057309"/><rtept lat="0.022347033004976424" lon="109.25005487899482"/><rtept lat="0.02042134447344779" lon="109.25347841998958"/><rtept lat="0.018141448295111218" lon="109.25765974199922"/><rtept lat="0.016693386914781172" lon="109.26041599532215"/><rtept lat="0.015220642659073746" lon="109.26331211821677"/><rtept lat="0.014052320393162177" lon="109.26608482678344"/><rtept lat="0.01248374852661982" lon="109.26972579144517"/><rtept lat="0.011249605274187502" lon="109.27258077623046"/><rtept lat="0.009719267633968798" lon="109.27607751552077"/><rtept lat="0.0085838558318585" lon="109.27867744402838"/><rtept lat="0.007185160129012047" lon="109.28200963088149"/><rtept lat="0.005128254676108668" lon="109.28665823723216"/><rtept lat="0.0036884208549707864" lon="109.28985878213554"/><rtept lat="0.0027586995863231323" lon="109.29199796381904"/><rtept lat="0.0016808811235335952" lon="109.29448270562062"/><rtept lat="0.0013188657618599109" lon="109.29618582334555"/><rtept lat="0.0006209233869043373" lon="109.30085067966368"/><rtept lat="0.0006291510087805818" lon="109.3020683676989"/><rtept lat="0.0006785167399243619" lon="109.30507144967768"/><rtept lat="0.0007443377147922092" lon="109.3075068257481"/><rtept lat="-0.0001607006897188512" lon="109.31096242692908"/><rtept lat="-0.0003581636143508149" lon="109.31191683106482"/><rtept lat="-0.002291654750735006" lon="109.316474933575"/><rtept lat="-0.004369036834120266" lon="109.32066803169602"/><rtept lat="-0.007670309409505194" lon="109.32470148173287"/><rtept lat="-0.010961358109383923" lon="109.32868365071289"/><rtept lat="-0.01236005379651317" lon="109.33039499605968"/><rtept lat="-0.014015596931898244" lon="109.33236408446245"/><rtept lat="-0.015916177516530183" lon="109.33471718431434"/><rtept lat="-0.01711741025809488" lon="109.33618170100533"/><rtept lat="-0.01828573250638499" lon="109.33745698239362"/><rtept lat="-0.018894576491931048" lon="109.3377120386713"/><rtept lat="-0.01924836421228804" lon="109.33772026629315"/><rtept lat="-0.019676200524315846" lon="109.33754748623409"/></rte></gpx>