<gpx xmlns="http://www.topografix.com/GPX/1/1" xmlns:xsi="http://www.w3.org/2001/XMLSchema-instance" xsi:schemaLocation="http://www.topografix.com/GPX/1/1 http://www.topografix.com/GPX/1/1/gpx.xsd" version="1.1" creator="OpenLayers"><rte><rtept lat="-7.192400034612589" lon="112.73737055808503"/><rtept lat="-7.1917745698711" lon="112.7427291699422"/><rtept lat="-7.191149104268021" lon="112.74856060049261"/><rtept lat="-7.189585436491512" lon="112.75801697435817"/><rtept lat="-7.187083556852599" lon="112.77188632269436"/><rtept lat="-7.189116335108778" lon="112.7796090280179"/><rtept lat="-7.190523637803452" lon="112.78654370218598"/><rtept lat="-7.193025498492474" lon="112.79347837635406"/><rtept lat="-7.1964595140203045" lon="112.80355303872571"/><rtept lat="-7.202557695520781" lon="112.81316701882237"/><rtept lat="-7.207248548556819" lon="112.8216777553014"/><rtept lat="-7.215066529012901" lon="112.83144934162915"/><rtept lat="-7.226636892209939" lon="112.85067730182247"/><rtept lat="-7.230076672805282" lon="112.85682394483509"/><rtept lat="-7.25243460755155" lon="112.89701353376371"/><rtept lat="-7.268068867505264" lon="112.91655670641926"/><rtept lat="-7.293680687515675" lon="112.95854848833825"/><rtept lat="-7.313690601804083" lon="112.98061336069124"/><rtept lat="-7.339468467581597" lon="113.02366565347438"/><rtept lat="-7.3601015570514505" lon="113.05644774954169"/><rtept lat="-7.38198408800335" lon="113.09427324500396"/><rtept lat="-7.391987170303224" lon="113.15542446266802"/><rtept lat="-7.396988626510009" lon="113.2846615721641"/><rtept lat="-7.405752259473843" lon="113.4177264927983"/><rtept lat="-7.4082529166306585" lon="113.47572558584048"/><rtept lat="-7.412629032505691" lon="113.58395607138438"/><rtept lat="-7.414504497427799" lon="113.61673816745169"/><rtept lat="-7.420130844252796" lon="113.6848240592838"/><rtept lat="-7.422006277207473" lon="113.74219272740159"/><rtept lat="-7.427007392652428" lon="113.78317034748572"/><rtept lat="-7.4382511038480885" lon="113.88779489488942"/><rtept lat="-7.443877146617311" lon="113.95461993687279"/><rtept lat="-7.57652985733489" lon="114.35048509988626"/><rtept lat="-7.73510000319277" lon="114.69788010573818"/><rtept lat="-7.7899052320767055" lon="114.8627173704941"/><rtept lat="-7.80896269425368" lon="114.94927669533142"/><rtept lat="-7.9018553357670385" lon="115.17288828449453"/><rtept lat="-7.925670605065477" lon="115.26425646071172"/><rtept lat="-7.98758384598645" lon="115.3556246369289"/><rtept lat="-8.03044136466356" lon="115.4397795360763"/><rtept lat="-8.113762461808932" lon="115.55038311781288"/><rtept lat="-8.170886957025076" lon="115.62492031420058"/><rtept lat="-8.216104719727767" lon="115.69705308489836"/><rtept lat="-8.273214526055341" lon="115.74273717300694"/><rtept lat="-8.306524761404503" lon="115.76197257852641"/><rtept lat="-8.370757936108888" lon="115.75956815283648"/><rtept lat="-8.45638567539146" lon="115.74995045007675"/><rtept lat="-8.478672459927452" lon="115.72835133203662"/><rtept lat="-8.496823446417878" lon="115.67406003518815"/><rtept lat="-8.507411125295505" lon="115.64194405677073"/><rtept lat="-8.524804533680353" lon="115.5945347552974"/><rtept lat="-8.5416491574138" lon="115.55312577287253"/><rtept lat="-8.544796721458724" lon="115.5425240544148"/><rtept lat="-8.539318686135204" lon="115.52555902772677"/><rtept lat="-8.536281171645442" lon="115.51643470842818"/><rtept lat="-8.534322313546781" lon="115.51093328820224"/></rte></gpx>